[{"OBJECT_NAME":"STARLINK-32445","OBJECT_ID":"2024-184Q","EPOCH":"2026-03-09T03:59:04.055424","MEAN_MOTION":15.30185321,"ECCENTRICITY":0.00010882,"INCLINATION":53.1627,"RA_OF_ASC_NODE":16.5992,"ARG_OF_PERICENTER":111.4669,"MEAN_ANOMALY":248.6448,"EPHEMERIS_TYPE":0,"CLASSIFICATION_TYPE":"U","NORAD_CAT_ID":61546,"ELEMENT_SET_NO":999,"REV_AT_EPOCH":7842,"BSTAR":-1.8019312e-5,"MEAN_MOTION_DOT":-8.92e-6,"MEAN_MOTION_DDOT":0},{"OBJECT_NAME":"CZ-6A DEB","OBJECT_ID":"2024-140FM","EPOCH":"2026-03-09T15:58:48.665856","MEAN_MOTION":15.24907574,"ECCENTRICITY":0.01008734,"INCLINATION":89.2247,"RA_OF_ASC_NODE":296.4931,"ARG_OF_PERICENTER":41.247,"MEAN_ANOMALY":319.6342,"EPHEMERIS_TYPE":0,"CLASSIFICATION_TYPE":"U","NORAD_CAT_ID":60786,"ELEMENT_SET_NO":999,"REV_AT_EPOCH":8558,"BSTAR":0.0022097808,"MEAN_MOTION_DOT":0.0006402,"MEAN_MOTION_DDOT":0}]
